[
  {
    "OBJECT_NAME": "STARLINK-32014",
    "OBJECT_ID": "24120R",
    "EPOCH": "2025-11-11T05:52:16.971168",
    "MEAN_MOTION": 15.3020461,
    "ECCENTRICITY": 0.0001517,
    "INCLINATION": 53.1562,
    "RA_OF_ASC_NODE": 149.949,
    "ARG_OF_PERICENTER": 91.7532,
    "MEAN_ANOMALY": 268.3643,
    "EPHEMERIS_TYPE": 0,
    "CLASSIFICATION_TYPE": "U",
    "NORAD_CAT_ID": 60150,
    "ELEMENT_SET_NO": 999,
    "REV_AT_EPOCH": 7824,
    "BSTAR": 0.0,
    "MEAN_MOTION_DOT": -1.029e-05,
    "MEAN_MOTION_DDOT": 0.0,
    "TLE_LINE1": "1 60150U 24120R   25315.24464087 -.00001029  00000+0 -22618-4 0  9998",
    "TLE_LINE2": "2 60150  53.1562 149.9490 0001517  91.7532 268.3643 15.30204610 78248",
    "COMMENT": "Grouped by shell and plane from TLE"
  },
  {
    "OBJECT_NAME": "STARLINK-32145",
    "OBJECT_ID": "24120V",
    "EPOCH": "2025-11-11T05:46:09.620832",
    "MEAN_MOTION": 15.30222543,
    "ECCENTRICITY": 0.0001096,
    "INCLINATION": 53.1572,
    "RA_OF_ASC_NODE": 149.9215,
    "ARG_OF_PERICENTER": 85.4337,
    "MEAN_ANOMALY": 274.6789,
    "EPHEMERIS_TYPE": 0,
    "CLASSIFICATION_TYPE": "U",
    "NORAD_CAT_ID": 60154,
    "ELEMENT_SET_NO": 999,
    "REV_AT_EPOCH": 7824,
    "BSTAR": 0.00012012000000000001,
    "MEAN_MOTION_DOT": 3.203e-05,
    "MEAN_MOTION_DDOT": 0.0,
    "TLE_LINE1": "1 60154U 24120V   25315.24038913  .00003203  00000+0  12012-3 0  9997",
    "TLE_LINE2": "2 60154  53.1572 149.9215 0001096  85.4337 274.6789 15.30222543 78249",
    "COMMENT": "Grouped by shell and plane from TLE"
  },
  {
    "OBJECT_NAME": "STARLINK-32278",
    "OBJECT_ID": "24138B",
    "EPOCH": "2025-11-11T05:08:26.423808",
    "MEAN_MOTION": 15.30198844,
    "ECCENTRICITY": 9.38e-05,
    "INCLINATION": 53.1587,
    "RA_OF_ASC_NODE": 140.2473,
    "ARG_OF_PERICENTER": 110.2954,
    "MEAN_ANOMALY": 249.8148,
    "EPHEMERIS_TYPE": 0,
    "CLASSIFICATION_TYPE": "U",
    "NORAD_CAT_ID": 60356,
    "ELEMENT_SET_NO": 999,
    "REV_AT_EPOCH": 7248,
    "BSTAR": 3.7815e-05,
    "MEAN_MOTION_DOT": 7.61e-06,
    "MEAN_MOTION_DDOT": 0.0,
    "TLE_LINE1": "1 60356U 24138B   25315.21419472  .00000761  00000+0  37815-4 0  9995",
    "TLE_LINE2": "2 60356  53.1587 140.2473 0000938 110.2954 249.8148 15.30198844 72484",
    "COMMENT": "Grouped by shell and plane from TLE"
  },
  {
    "OBJECT_NAME": "STARLINK-32287",
    "OBJECT_ID": "24138D",
    "EPOCH": "2025-11-10T19:39:34.042464",
    "MEAN_MOTION": 15.30199706,
    "ECCENTRICITY": 0.0001609,
    "INCLINATION": 53.1571,
    "RA_OF_ASC_NODE": 142.0586,
    "ARG_OF_PERICENTER": 104.2628,
    "MEAN_ANOMALY": 255.8552,
    "EPHEMERIS_TYPE": 0,
    "CLASSIFICATION_TYPE": "U",
    "NORAD_CAT_ID": 60358,
    "ELEMENT_SET_NO": 999,
    "REV_AT_EPOCH": 7242,
    "BSTAR": 5.3254e-05,
    "MEAN_MOTION_DOT": 1.218e-05,
    "MEAN_MOTION_DDOT": 0.0,
    "TLE_LINE1": "1 60358U 24138D   25314.81914401  .00001218  00000+0  53254-4 0  9997",
    "TLE_LINE2": "2 60358  53.1571 142.0586 0001609 104.2628 255.8552 15.30199706 72429",
    "COMMENT": "Grouped by shell and plane from TLE"
  },
  {
    "OBJECT_NAME": "STARLINK-32290",
    "OBJECT_ID": "24138E",
    "EPOCH": "2025-11-11T05:06:55.321920",
    "MEAN_MOTION": 15.30197073,
    "ECCENTRICITY": 7.48e-05,
    "INCLINATION": 53.1578,
    "RA_OF_ASC_NODE": 140.2505,
    "ARG_OF_PERICENTER": 86.6763,
    "MEAN_ANOMALY": 273.4323,
    "EPHEMERIS_TYPE": 0,
    "CLASSIFICATION_TYPE": "U",
    "NORAD_CAT_ID": 60359,
    "ELEMENT_SET_NO": 999,
    "REV_AT_EPOCH": 5351,
    "BSTAR": 3.8789000000000004e-05,
    "MEAN_MOTION_DOT": 7.9e-06,
    "MEAN_MOTION_DDOT": 0.0,
    "TLE_LINE1": "1 60359U 24138E   25315.21314030  .00000790  00000+0  38789-4 0  9995",
    "TLE_LINE2": "2 60359  53.1578 140.2505 0000748  86.6763 273.4323 15.30197073 53510",
    "COMMENT": "Grouped by shell and plane from TLE"
  },
  {
    "OBJECT_NAME": "STARLINK-32227",
    "OBJECT_ID": "24138G",
    "EPOCH": "2025-11-10T19:33:29.117376",
    "MEAN_MOTION": 15.30198344,
    "ECCENTRICITY": 0.0001178,
    "INCLINATION": 53.1558,
    "RA_OF_ASC_NODE": 142.0178,
    "ARG_OF_PERICENTER": 83.0586,
    "MEAN_ANOMALY": 277.0549,
    "EPHEMERIS_TYPE": 0,
    "CLASSIFICATION_TYPE": "U",
    "NORAD_CAT_ID": 60361,
    "ELEMENT_SET_NO": 999,
    "REV_AT_EPOCH": 7243,
    "BSTAR": 8.0919e-05,
    "MEAN_MOTION_DOT": 2.038e-05,
    "MEAN_MOTION_DDOT": 0.0,
    "TLE_LINE1": "1 60361U 24138G   25314.81492034  .00002038  00000+0  80919-4 0  9993",
    "TLE_LINE2": "2 60361  53.1558 142.0178 0001178  83.0586 277.0549 15.30198344 72433",
    "COMMENT": "Grouped by shell and plane from TLE"
  },
  {
    "OBJECT_NAME": "STARLINK-32256",
    "OBJECT_ID": "24138H",
    "EPOCH": "2025-11-11T05:05:24.305568",
    "MEAN_MOTION": 15.30187108,
    "ECCENTRICITY": 0.0001367,
    "INCLINATION": 53.1587,
    "RA_OF_ASC_NODE": 140.2323,
    "ARG_OF_PERICENTER": 93.9815,
    "MEAN_ANOMALY": 266.1342,
    "EPHEMERIS_TYPE": 0,
    "CLASSIFICATION_TYPE": "U",
    "NORAD_CAT_ID": 60362,
    "ELEMENT_SET_NO": 999,
    "REV_AT_EPOCH": 7247,
    "BSTAR": 0.00014845,
    "MEAN_MOTION_DOT": 4.038e-05,
    "MEAN_MOTION_DDOT": 0.0,
    "TLE_LINE1": "1 60362U 24138H   25315.21208687  .00004038  00000+0  14845-3 0  9994",
    "TLE_LINE2": "2 60362  53.1587 140.2323 0001367  93.9815 266.1342 15.30187108 72473",
    "COMMENT": "Grouped by shell and plane from TLE"
  },
  {
    "OBJECT_NAME": "STARLINK-32267",
    "OBJECT_ID": "24138J",
    "EPOCH": "2025-11-10T22:34:00.174720",
    "MEAN_MOTION": 15.30178101,
    "ECCENTRICITY": 0.0001365,
    "INCLINATION": 53.1574,
    "RA_OF_ASC_NODE": 141.3867,
    "ARG_OF_PERICENTER": 84.2578,
    "MEAN_ANOMALY": 275.8579,
    "EPHEMERIS_TYPE": 0,
    "CLASSIFICATION_TYPE": "U",
    "NORAD_CAT_ID": 60363,
    "ELEMENT_SET_NO": 999,
    "REV_AT_EPOCH": 7244,
    "BSTAR": 0.00018533,
    "MEAN_MOTION_DOT": 5.13e-05,
    "MEAN_MOTION_DDOT": 0.0,
    "TLE_LINE1": "1 60363U 24138J   25314.94027980  .00005130  00000+0  18533-3 0  9991",
    "TLE_LINE2": "2 60363  53.1574 141.3867 0001365  84.2578 275.8579 15.30178101 72441",
    "COMMENT": "Grouped by shell and plane from TLE"
  },
  {
    "OBJECT_NAME": "STARLINK-32270",
    "OBJECT_ID": "24138K",
    "EPOCH": "2025-11-10T22:21:49.956480",
    "MEAN_MOTION": 15.30218787,
    "ECCENTRICITY": 1.51e-05,
    "INCLINATION": 53.1613,
    "RA_OF_ASC_NODE": 141.3386,
    "ARG_OF_PERICENTER": 19.9635,
    "MEAN_ANOMALY": 340.1371,
    "EPHEMERIS_TYPE": 0,
    "CLASSIFICATION_TYPE": "U",
    "NORAD_CAT_ID": 60364,
    "ELEMENT_SET_NO": 999,
    "REV_AT_EPOCH": 7234,
    "BSTAR": 0.00020480999999999999,
    "MEAN_MOTION_DOT": 5.715e-05,
    "MEAN_MOTION_DDOT": 0.0,
    "TLE_LINE1": "1 60364U 24138K   25314.93182820  .00005715  00000+0  20481-3 0  9990",
    "TLE_LINE2": "2 60364  53.1613 141.3386 0000151  19.9635 340.1371 15.30218787 72343",
    "COMMENT": "Grouped by shell and plane from TLE"
  },
  {
    "OBJECT_NAME": "STARLINK-32230",
    "OBJECT_ID": "24138M",
    "EPOCH": "2025-11-10T19:22:51.103488",
    "MEAN_MOTION": 15.30201182,
    "ECCENTRICITY": 0.0001286,
    "INCLINATION": 53.1582,
    "RA_OF_ASC_NODE": 141.9827,
    "ARG_OF_PERICENTER": 92.3522,
    "MEAN_ANOMALY": 267.7626,
    "EPHEMERIS_TYPE": 0,
    "CLASSIFICATION_TYPE": "U",
    "NORAD_CAT_ID": 60366,
    "ELEMENT_SET_NO": 999,
    "REV_AT_EPOCH": 7242,
    "BSTAR": 0.00011313,
    "MEAN_MOTION_DOT": 2.993e-05,
    "MEAN_MOTION_DDOT": 0.0,
    "TLE_LINE1": "1 60366U 24138M   25314.80753592  .00002993  00000+0  11313-3 0  9997",
    "TLE_LINE2": "2 60366  53.1582 141.9827 0001286  92.3522 267.7626 15.30201182 72423",
    "COMMENT": "Grouped by shell and plane from TLE"
  },
  {
    "OBJECT_NAME": "STARLINK-32243",
    "OBJECT_ID": "24138N",
    "EPOCH": "2025-11-10T22:15:45.064224",
    "MEAN_MOTION": 15.30191515,
    "ECCENTRICITY": 0.0001404,
    "INCLINATION": 53.1614,
    "RA_OF_ASC_NODE": 141.3062,
    "ARG_OF_PERICENTER": 82.8881,
    "MEAN_ANOMALY": 277.2279,
    "EPHEMERIS_TYPE": 0,
    "CLASSIFICATION_TYPE": "U",
    "NORAD_CAT_ID": 60367,
    "ELEMENT_SET_NO": 999,
    "REV_AT_EPOCH": 7244,
    "BSTAR": 0.00011305999999999999,
    "MEAN_MOTION_DOT": 2.99e-05,
    "MEAN_MOTION_DDOT": 0.0,
    "TLE_LINE1": "1 60367U 24138N   25314.92760491  .00002990  00000+0  11306-3 0  9996",
    "TLE_LINE2": "2 60367  53.1614 141.3062 0001404  82.8881 277.2279 15.30191515 72449",
    "COMMENT": "Grouped by shell and plane from TLE"
  },
  {
    "OBJECT_NAME": "STARLINK-32271",
    "OBJECT_ID": "24138P",
    "EPOCH": "2025-11-10T19:36:31.801536",
    "MEAN_MOTION": 15.30196008,
    "ECCENTRICITY": 0.0001281,
    "INCLINATION": 53.1611,
    "RA_OF_ASC_NODE": 142.0435,
    "ARG_OF_PERICENTER": 86.8422,
    "MEAN_ANOMALY": 273.2726,
    "EPHEMERIS_TYPE": 0,
    "CLASSIFICATION_TYPE": "U",
    "NORAD_CAT_ID": 60368,
    "ELEMENT_SET_NO": 999,
    "REV_AT_EPOCH": 7242,
    "BSTAR": 3.6734000000000004e-05,
    "MEAN_MOTION_DOT": 7.29e-06,
    "MEAN_MOTION_DDOT": 0.0,
    "TLE_LINE1": "1 60368U 24138P   25314.81703474  .00000729  00000+0  36734-4 0  9994",
    "TLE_LINE2": "2 60368  53.1611 142.0435 0001281  86.8422 273.2726 15.30196008 72420",
    "COMMENT": "Grouped by shell and plane from TLE"
  },
  {
    "OBJECT_NAME": "STARLINK-32220",
    "OBJECT_ID": "24138R",
    "EPOCH": "2025-11-10T22:24:52.517952",
    "MEAN_MOTION": 15.3019764,
    "ECCENTRICITY": 0.000144,
    "INCLINATION": 53.1587,
    "RA_OF_ASC_NODE": 141.3444,
    "ARG_OF_PERICENTER": 85.5275,
    "MEAN_ANOMALY": 274.5891,
    "EPHEMERIS_TYPE": 0,
    "CLASSIFICATION_TYPE": "U",
    "NORAD_CAT_ID": 60370,
    "ELEMENT_SET_NO": 999,
    "REV_AT_EPOCH": 7244,
    "BSTAR": 2.6689e-05,
    "MEAN_MOTION_DOT": 4.31e-06,
    "MEAN_MOTION_DDOT": 0.0,
    "TLE_LINE1": "1 60370U 24138R   25314.93394118  .00000431  00000+0  26689-4 0  9999",
    "TLE_LINE2": "2 60370  53.1587 141.3444 0001440  85.5275 274.5891 15.30197640 72448",
    "COMMENT": "Grouped by shell and plane from TLE"
  }
]